{"type": "FeatureCollection", "features": [ {"type": "Feature", "properties": {"norad_id": 38552, "name": "METEOSAT-10 (MSG-3)", "group": "weather", "lat": -3.6749040587226296, "lon": -58.20396726858158, "alt_km": 35782.28553542286, "timestamp": "2025-12-09T14:52:25.808086+00:00", "meta": {"OBJECT_NAME": "METEOSAT-10 (MSG-3)", "OBJECT_ID": "2012-035B", "EPOCH": "2025-12-09T01:35:17.617632", "MEAN_MOTION": 1.0027383, "ECCENTRICITY": 8.734e-05, "INCLINATION": 4.2204, "RA_OF_ASC_NODE": 61.7307, "ARG_OF_PERICENTER": 239.048, "MEAN_ANOMALY": 161.2485, "EPHEMERIS_TYPE": 0, "CLASSIFICATION_TYPE": "U", "NORAD_CAT_ID": 38552, "ELEMENT_SET_NO": 999, "REV_AT_EPOCH": 4895, "BSTAR": 0, "MEAN_MOTION_DOT": -5e-08, "MEAN_MOTION_DDOT": 0}, "tle": {"line1": "1 38552U 12035B   25343.06617613 -.00000005  00000+0  00000+0 0  9995", "line2": "2 38552   4.2204  61.7307 0000873 239.0480 161.2485  1.00273830 48952"}}, "geometry": {"type": "Point", "coordinates": [-58.20396726858158, -3.6749040587226296]}}, {"type": "Feature", "properties": {"norad_id": 38771, "name": "METOP-B", "group": "weather", "lat": -28.16583773367161, "lon": 38.323143219247704, "alt_km": 828.3601340232553, "timestamp": "2025-12-09T14:52:25.808098+00:00", "meta": {"OBJECT_NAME": "METOP-B", "OBJECT_ID": "2012-049A", "EPOCH": "2025-12-09T06:33:38.474208", "MEAN_MOTION": 14.2140659, "ECCENTRICITY": 0.00027674, "INCLINATION": 98.6804, "RA_OF_ASC_NODE": 33.2908, "ARG_OF_PERICENTER": 151.6945, "MEAN_ANOMALY": 208.4383, "EPHEMERIS_TYPE": 0, "CLASSIFICATION_TYPE": "U", "NORAD_CAT_ID": 38771, "ELEMENT_SET_NO": 999, "REV_AT_EPOCH": 68628, "BSTAR": 0.00014277368, "MEAN_MOTION_DOT": 2.68e-06, "MEAN_MOTION_DDOT": 0}, "tle": {"line1": "1 38771U 12049A   25343.27336197  .00000268  00000+0  14277-3 0  9996", "line2": "2 38771  98.6804  33.2908 0002767 151.6945 208.4383 14.21406590686281"}}, "geometry": {"type": "Point", "coordinates": [38.323143219247704, -28.16583773367161]}}, {"type": "Feature", "properties": {"norad_id": 39216, "name": "INSAT-3D", "group": "weather", "lat": -0.3211134975753872, "lon": 71.2617062883564, "alt_km": 35793.305573169564, "timestamp": "2025-12-09T14:52:25.808110+00:00", "meta": {"OBJECT_NAME": "INSAT-3D", "OBJECT_ID": "2013-038B", "EPOCH": "2025-12-09T05:37:47.235936", "MEAN_MOTION": 1.00271317, "ECCENTRICITY": 0.00016565, "INCLINATION": 1.436, "RA_OF_ASC_NODE": 85.0262, "ARG_OF_PERICENTER": 162.134, "MEAN_ANOMALY": 45.0612, "EPHEMERIS_TYPE": 0, "CLASSIFICATION_TYPE": "U", "NORAD_CAT_ID": 39216, "ELEMENT_SET_NO": 999, "REV_AT_EPOCH": 4517, "BSTAR": 0, "MEAN_MOTION_DOT": -3.37e-06, "MEAN_MOTION_DDOT": 0}, "tle": {"line1": "1 39216U 13038B   25343.23457449 -.00000337  00000+0  00000+0 0  9993", "line2": "2 39216   1.4360  85.0262 0001656 162.1340  45.0612  1.00271317 45172"}}, "geometry": {"type": "Point", "coordinates": [71.2617062883564, -0.3211134975753872]}}, {"type": "Feature", "properties": {"norad_id": 39260, "name": "FENGYUN 3C", "group": "weather", "lat": -74.64489286630848, "lon": -5.658497226726909, "alt_km": 845.0435003968814, "timestamp": "2025-12-09T14:52:25.808121+00:00", "meta": {"OBJECT_NAME": "FENGYUN 3C", "OBJECT_ID": "2013-052A", "EPOCH": "2025-12-09T06:45:25.165728", "MEAN_MOTION": 14.15694771, "ECCENTRICITY": 0.00140869, "INCLINATION": 98.476, "RA_OF_ASC_NODE": 321.1298, "ARG_OF_PERICENTER": 206.3022, "MEAN_ANOMALY": 153.7439, "EPHEMERIS_TYPE": 0, "CLASSIFICATION_TYPE": "U", "NORAD_CAT_ID": 39260, "ELEMENT_SET_NO": 999, "REV_AT_EPOCH": 63169, "BSTAR": 0.00014067826, "MEAN_MOTION_DOT": 2.35e-06, "MEAN_MOTION_DDOT": 0}, "tle": {"line1": "1 39260U 13052A   25343.28154127  .00000235  00000+0  14068-3 0  9999", "line2": "2 39260  98.4760 321.1298 0014086 206.3022 153.7439 14.15694771631698"}}, "geometry": {"type": "Point", "coordinates": [-5.658497226726909, -74.64489286630848]}}, {"type": "Feature", "properties": {"norad_id": 40069, "name": "METEOR-M 2", "group": "weather", "lat": -20.086598784467004, "lon": 138.192517961946, "alt_km": 822.5647291332025, "timestamp": "2025-12-09T14:52:25.808132+00:00", "meta": {"OBJECT_NAME": "METEOR-M 2", "OBJECT_ID": "2014-037A", "EPOCH": "2025-12-09T05:29:14.305920", "MEAN_MOTION": 14.21383979, "ECCENTRICITY": 0.00048093, "INCLINATION": 98.4898, "RA_OF_ASC_NODE": 320.9475, "ARG_OF_PERICENTER": 221.8446, "MEAN_ANOMALY": 138.2365, "EPHEMERIS_TYPE": 0, "CLASSIFICATION_TYPE": "U", "NORAD_CAT_ID": 40069, "ELEMENT_SET_NO": 999, "REV_AT_EPOCH": 59233, "BSTAR": 0.00014343248, "MEAN_MOTION_DOT": 2.71e-06, "MEAN_MOTION_DDOT": 0}, "tle": {"line1": "1 40069U 14037A   25343.22863780  .00000271  00000+0  14343-3 0  9994", "line2": "2 40069  98.4898 320.9475 0004809 221.8446 138.2365 14.21383979592332"}}, "geometry": {"type": "Point", "coordinates": [138.192517961946, -20.086598784467004]}}, {"type": "Feature", "properties": {"norad_id": 40267, "name": "HIMAWARI-8", "group": "weather", "lat": 0.005871054719763859, "lon": 82.381385908478, "alt_km": 35790.84161735833, "timestamp": "2025-12-09T14:52:25.808144+00:00", "meta": {"OBJECT_NAME": "HIMAWARI-8", "OBJECT_ID": "2014-060A", "EPOCH": "2025-12-09T04:20:38.774112", "MEAN_MOTION": 1.0027064, "ECCENTRICITY": 0.00012504, "INCLINATION": 0.0335, "RA_OF_ASC_NODE": 218.5062, "ARG_OF_PERICENTER": 77.7925, "MEAN_ANOMALY": 347.7015, "EPHEMERIS_TYPE": 0, "CLASSIFICATION_TYPE": "U", "NORAD_CAT_ID": 40267, "ELEMENT_SET_NO": 999, "REV_AT_EPOCH": 4085, "BSTAR": 0, "MEAN_MOTION_DOT": -2.73e-06, "MEAN_MOTION_DDOT": 0}, "tle": {"line1": "1 40267U 14060A   25343.18100433 -.00000273  00000+0  00000+0 0  9998", "line2": "2 40267   0.0335 218.5062 0001250  77.7925 347.7015  1.00270640 40855"}}, "geometry": {"type": "Point", "coordinates": [82.381385908478, 0.005871054719763859]}}, {"type": "Feature", "properties": {"norad_id": 40367, "name": "FENGYUN 2G", "group": "weather", "lat": -2.851764722488748, "lon": 41.45854764491127, "alt_km": 35796.47699550555, "timestamp": "2025-12-09T14:52:25.808157+00:00", "meta": {"OBJECT_NAME": "FENGYUN 2G", "OBJECT_ID": "2014-090A", "EPOCH": "2025-12-08T17:30:10.330272", "MEAN_MOTION": 1.00265504, "ECCENTRICITY": 0.0003085, "INCLINATION": 5.1581, "RA_OF_ASC_NODE": 75.1439, "ARG_OF_PERICENTER": 197.6958, "MEAN_ANOMALY": 167.0613, "EPHEMERIS_TYPE": 0, "CLASSIFICATION_TYPE": "U", "NORAD_CAT_ID": 40367, "ELEMENT_SET_NO": 999, "REV_AT_EPOCH": 4009, "BSTAR": 0, "MEAN_MOTION_DOT": -3e-06, "MEAN_MOTION_DDOT": 0}, "tle": {"line1": "1 40367U 14090A   25342.72928623 -.00000300  00000+0  00000+0 0  9991", "line2": "2 40367   5.1581  75.1439 0003085 197.6958 167.0613  1.00265504 40092"}}, "geometry": {"type": "Point", "coordinates": [41.45854764491127, -2.851764722488748]}}, {"type": "Feature", "properties": {"norad_id": 40732, "name": "METEOSAT-11 (MSG-4)", "group": "weather", "lat": -2.3513737227089067, "lon": -48.95989714255918, "alt_km": 35789.724494678085, "timestamp": "2025-12-09T14:52:25.808169+00:00", "meta": {"OBJECT_NAME": "METEOSAT-11 (MSG-4)", "OBJECT_ID": "2015-034A", "EPOCH": "2025-12-09T05:03:28.023264", "MEAN_MOTION": 1.00266394, "ECCENTRICITY": 9.704e-05, "INCLINATION": 2.7265, "RA_OF_ASC_NODE": 72.0117, "ARG_OF_PERICENTER": 121.8112, "MEAN_ANOMALY": 329.5993, "EPHEMERIS_TYPE": 0, "CLASSIFICATION_TYPE": "U", "NORAD_CAT_ID": 40732, "ELEMENT_SET_NO": 999, "REV_AT_EPOCH": 531, "BSTAR": 0, "MEAN_MOTION_DOT": 6.3e-07, "MEAN_MOTION_DDOT": 0}, "tle": {"line1": "1 40732U 15034A   25343.21074101  .00000063  00000+0  00000+0 0  9999", "line2": "2 40732   2.7265  72.0117 0000970 121.8112 329.5993  1.00266394  5310"}}, "geometry": {"type": "Point", "coordinates": [-48.95989714255918, -2.3513737227089067]}}, {"type": "Feature", "properties": {"norad_id": 41105, "name": "ELEKTRO-L 2", "group": "weather", "lat": -3.5234349920014902, "lon": -72.93150984005833, "alt_km": 35770.88265460664, "timestamp": "2025-12-09T14:52:25.808181+00:00", "meta": {"OBJECT_NAME": "ELEKTRO-L 2", "OBJECT_ID": "2015-074A", "EPOCH": "2025-12-09T01:31:10.511904", "MEAN_MOTION": 1.00271905, "ECCENTRICITY": 0.00038363, "INCLINATION": 6.2161, "RA_OF_ASC_NODE": 72.8685, "ARG_OF_PERICENTER": 198.9202, "MEAN_ANOMALY": 174.5582, "EPHEMERIS_TYPE": 0, "CLASSIFICATION_TYPE": "U", "NORAD_CAT_ID": 41105, "ELEMENT_SET_NO": 999, "REV_AT_EPOCH": 3660, "BSTAR": 0, "MEAN_MOTION_DOT": -1.16e-06, "MEAN_MOTION_DDOT": 0}, "tle": {"line1": "1 41105U 15074A   25343.06331611 -.00000116  00000+0  00000+0 0  9993", "line2": "2 41105   6.2161  72.8685 0003836 198.9202 174.5582  1.00271905 36608"}}, "geometry": {"type": "Point", "coordinates": [-72.93150984005833, -3.5234349920014902]}}, {"type": "Feature", "properties": {"norad_id": 41752, "name": "INSAT-3DR", "group": "weather", "lat": -0.0655233978959822, "lon": 15.879093956319942, "alt_km": 35803.126555644485, "timestamp": "2025-12-09T14:52:25.808194+00:00", "meta": {"OBJECT_NAME": "INSAT-3DR", "OBJECT_ID": "2016-054A", "EPOCH": "2025-12-09T03:39:06.103008", "MEAN_MOTION": 1.00270302, "ECCENTRICITY": 0.0014519, "INCLINATION": 0.0833, "RA_OF_ASC_NODE": 86.6915, "ARG_OF_PERICENTER": 183.4993, "MEAN_ANOMALY": 296.7401, "EPHEMERIS_TYPE": 0, "CLASSIFICATION_TYPE": "U", "NORAD_CAT_ID": 41752, "ELEMENT_SET_NO": 999, "REV_AT_EPOCH": 3391, "BSTAR": 0, "MEAN_MOTION_DOT": -7.5e-07, "MEAN_MOTION_DDOT": 0}, "tle": {"line1": "1 41752U 16054A   25343.15215397 -.00000075  00000+0  00000+0 0  9996", "line2": "2 41752   0.0833  86.6915 0014519 183.4993 296.7401  1.00270302 33917"}}, "geometry": {"type": "Point", "coordinates": [15.879093956319942, -0.0655233978959822]}}]}